start=new Date('2023-03-03T00:00:00.000Z').valueOf();
sats=[{"PERIAPSIS":"539.044","TLE_LINE2":"2 51774  53.2153 250.0485 0000994 104.8571 255.2531 15.08844443 56079","LAUNCH_DATE":"2022-02-25","REV_AT_EPOCH":"5607","RCS_SIZE":"LARGE","TIME_SYSTEM":"UTC","INCLINATION":"53.2153","OBJECT_NAME":"STARLINK-3629","MEAN_MOTION_DDOT":"0.0000000000000","ECCENTRICITY":"0.00009940","ARG_OF_PERICENTER":"104.8571","CENTER_NAME":"EARTH","CLASSIFICATION_TYPE":"U","ELEMENT_SET_NO":"999","MEAN_ELEMENT_THEORY":"SGP4","NORAD_CAT_ID":"51774","FILE":"3849487","SEMIMAJOR_AXIS":"6917.867","COUNTRY_CODE":"US","APOAPSIS":"540.419","EPOCH":"2023-03-02T19:55:44.605632","RA_OF_ASC_NODE":"250.0485","OBJECT_ID":"2022-017G","MEAN_ANOMALY":"255.2531","MEAN_MOTION":"15.08844443","GP_ID":"227361719","DECAY_DATE":null,"OBJECT_TYPE":"PAYLOAD","PERIOD":"95.437","BSTAR":"0.00028626000000","SITE":"AFWTR","TLE_LINE1":"1 51774U 22017G   23061.83037738  .00004272  00000-0  28626-3 0  9999","REF_FRAME":"TEME","MEAN_MOTION_DOT":"0.00004272","EPHEMERIS_TYPE":"0"},{"NORAD_CAT_ID":"51775","MEAN_ELEMENT_THEORY":"SGP4","ELEMENT_SET_NO":"999","FILE":"3849487","ECCENTRICITY":"0.00012920","MEAN_MOTION_DDOT":"0.0000000000000","OBJECT_NAME":"STARLINK-3620","RCS_SIZE":"LARGE","INCLINATION":"53.2144","TIME_SYSTEM":"UTC","REV_AT_EPOCH":"5610","TLE_LINE2":"2 51775  53.2144 250.2978 0001292  92.7099 267.4041 15.08849326 56101","LAUNCH_DATE":"2022-02-25","PERIAPSIS":"538.823","CLASSIFICATION_TYPE":"U","CENTER_NAME":"EARTH","ARG_OF_PERICENTER":"92.7099","TLE_LINE1":"1 51775U 22017H   23061.77517562  .00006316  00000-0  41443-3 0  9994","SITE":"AFWTR","PERIOD":"95.437","BSTAR":"0.00041443000000","OBJECT_TYPE":"PAYLOAD","EPHEMERIS_TYPE":"0","MEAN_MOTION_DOT":"0.00006316","REF_FRAME":"TEME","DECAY_DATE":null,"GP_ID":"227361969","MEAN_MOTION":"15.08849326","MEAN_ANOMALY":"267.4041","OBJECT_ID":"2022-017H","RA_OF_ASC_NODE":"250.2978","EPOCH":"2023-03-02T18:36:15.173568","APOAPSIS":"540.611","SEMIMAJOR_AXIS":"6917.852","COUNTRY_CODE":"US"},{"EPOCH":"2023-03-02T19:50:26.581056","RA_OF_ASC_NODE":"250.0660","SEMIMAJOR_AXIS":"6917.899","COUNTRY_CODE":"US","APOAPSIS":"540.529","MEAN_MOTION":"15.08833940","DECAY_DATE":null,"GP_ID":"227362227","OBJECT_ID":"2022-017J","MEAN_ANOMALY":"257.2951","MEAN_MOTION_DOT":"0.00002525","REF_FRAME":"TEME","EPHEMERIS_TYPE":"0","OBJECT_TYPE":"PAYLOAD","BSTAR":"0.00017671000000","PERIOD":"95.438","TLE_LINE1":"1 51776U 22017J   23061.82669654  .00002525  00000-0  17671-3 0  9995","SITE":"AFWTR","ARG_OF_PERICENTER":"102.8165","CENTER_NAME":"EARTH","CLASSIFICATION_TYPE":"U","TLE_LINE2":"2 51776  53.2141 250.0660 0001106 102.8165 257.2951 15.08833940 56074","LAUNCH_DATE":"2022-02-25","PERIAPSIS":"538.999","MEAN_MOTION_DDOT":"0.0000000000000","ECCENTRICITY":"0.00011060","REV_AT_EPOCH":"5607","RCS_SIZE":"LARGE","TIME_SYSTEM":"UTC","INCLINATION":"53.2141","OBJECT_NAME":"STARLINK-3608","FILE":"3849487","ELEMENT_SET_NO":"999","NORAD_CAT_ID":"51776","MEAN_ELEMENT_THEORY":"SGP4"},{"RA_OF_ASC_NODE":"250.0137","EPOCH":"2023-03-02T19:57:06.835968","APOAPSIS":"540.580","SEMIMAJOR_AXIS":"6917.855","COUNTRY_CODE":"US","DECAY_DATE":null,"GP_ID":"227362971","MEAN_MOTION":"15.08848429","MEAN_ANOMALY":"283.3975","OBJECT_ID":"2022-017K","MEAN_MOTION_DOT":"0.00005190","REF_FRAME":"TEME","EPHEMERIS_TYPE":"0","OBJECT_TYPE":"PAYLOAD","SITE":"AFWTR","TLE_LINE1":"1 51777U 22017K   23061.83132912  .00005190  00000-0  34386-3 0  9992","PERIOD":"95.437","BSTAR":"0.00034386000000","CLASSIFICATION_TYPE":"U","ARG_OF_PERICENTER":"76.7155","CENTER_NAME":"EARTH","TLE_LINE2":"2 51777  53.2137 250.0137 0001244  76.7155 283.3975 15.08848429 56108","LAUNCH_DATE":"2022-02-25","PERIAPSIS":"538.859","ECCENTRICITY":"0.00012440","MEAN_MOTION_DDOT":"0.0000000000000","RCS_SIZE":"MEDIUM","TIME_SYSTEM":"UTC","INCLINATION":"53.2137","OBJECT_NAME":"STARLINK-3625","REV_AT_EPOCH":"5610","FILE":"3849487","ELEMENT_SET_NO":"999","NORAD_CAT_ID":"51777","MEAN_ELEMENT_THEORY":"SGP4"},{"ECCENTRICITY":"0.00014790","MEAN_MOTION_DDOT":"0.0000000000000","RCS_SIZE":"LARGE","TIME_SYSTEM":"UTC","INCLINATION":"53.2147","OBJECT_NAME":"STARLINK-3615","REV_AT_EPOCH":"5605","LAUNCH_DATE":"2022-02-25","TLE_LINE2":"2 51778  53.2147 240.1960 0001479  85.5095 274.6066 15.08904372 56053","PERIAPSIS":"538.526","CLASSIFICATION_TYPE":"U","CENTER_NAME":"EARTH","ARG_OF_PERICENTER":"85.5095","NORAD_CAT_ID":"51778","MEAN_ELEMENT_THEORY":"SGP4","ELEMENT_SET_NO":"999","FILE":"3849487","DECAY_DATE":null,"GP_ID":"227361226","MEAN_MOTION":"15.08904372","MEAN_ANOMALY":"274.6066","OBJECT_ID":"2022-017L","RA_OF_ASC_NODE":"240.1960","EPOCH":"2023-03-02T18:26:55.496832","APOAPSIS":"540.572","SEMIMAJOR_AXIS":"6917.684","COUNTRY_CODE":"US","SITE":"AFWTR","TLE_LINE1":"1 51778U 22017L   23061.76869788  .00019376  00000-0  12300-2 0  9995","PERIOD":"95.433","BSTAR":"0.00123000000000","OBJECT_TYPE":"PAYLOAD","EPHEMERIS_TYPE":"0","MEAN_MOTION_DOT":"0.00019376","REF_FRAME":"TEME"},{"TLE_LINE2":"2 51779  53.2134 250.0841 0001249  65.6801 294.4321 15.08844773 56071","LAUNCH_DATE":"2022-02-25","PERIAPSIS":"538.867","MEAN_MOTION_DDOT":"0.0000000000000","ECCENTRICITY":"0.00012490","REV_AT_EPOCH":"5607","INCLINATION":"53.2134","RCS_SIZE":"LARGE","TIME_SYSTEM":"UTC","OBJECT_NAME":"STARLINK-3611","ARG_OF_PERICENTER":"65.6801","CENTER_NAME":"EARTH","CLASSIFICATION_TYPE":"U","ELEMENT_SET_NO":"999","NORAD_CAT_ID":"51779","MEAN_ELEMENT_THEORY":"SGP4","FILE":"3849487","EPOCH":"2023-03-02T19:45:09.594144","RA_OF_ASC_NODE":"250.0841","COUNTRY_CODE":"US","SEMIMAJOR_AXIS":"6917.866","APOAPSIS":"540.595","MEAN_MOTION":"15.08844773","GP_ID":"227361476","DECAY_DATE":null,"OBJECT_ID":"2022-017M","MEAN_ANOMALY":"294.4321","OBJECT_TYPE":"PAYLOAD","PERIOD":"95.437","BSTAR":"0.00045805000000","TLE_LINE1":"1 51779U 22017M   23061.82302771  .00007010  00000-0  45805-3 0  9996","SITE":"AFWTR","MEAN_MOTION_DOT":"0.00007010","REF_FRAME":"TEME","EPHEMERIS_TYPE":"0"},{"REF_FRAME":"TEME","MEAN_MOTION_DOT":"0.00004337","EPHEMERIS_TYPE":"0","OBJECT_TYPE":"PAYLOAD","TLE_LINE1":"1 51780U 22017N   23061.81566209  .00004337  00000-0  29043-3 0  9990","SITE":"AFWTR","PERIOD":"95.438","BSTAR":"0.00029043000000","APOAPSIS":"540.672","COUNTRY_CODE":"US","SEMIMAJOR_AXIS":"6917.878","RA_OF_ASC_NODE":"250.1401","EPOCH":"2023-03-02T19:34:33.204576","MEAN_ANOMALY":"268.8528","OBJECT_ID":"2022-017N","DECAY_DATE":null,"GP_ID":"227362721","MEAN_MOTION":"15.08840620","FILE":"3849487","ELEMENT_SET_NO":"999","MEAN_ELEMENT_THEORY":"SGP4","NORAD_CAT_ID":"51780","CLASSIFICATION_TYPE":"U","CENTER_NAME":"EARTH","ARG_OF_PERICENTER":"91.2618","PERIAPSIS":"538.815","LAUNCH_DATE":"2022-02-25","TLE_LINE2":"2 51780  53.2140 250.1401 0001342  91.2618 268.8528 15.08840620 55922","RCS_SIZE":"LARGE","OBJECT_NAME":"STARLINK-3617","INCLINATION":"53.2140","TIME_SYSTEM":"UTC","REV_AT_EPOCH":"5592","ECCENTRICITY":"0.00013420","MEAN_MOTION_DDOT":"0.0000000000000"},{"ARG_OF_PERICENTER":"85.4739","CENTER_NAME":"EARTH","CLASSIFICATION_TYPE":"U","PERIAPSIS":"538.598","LAUNCH_DATE":"2022-02-25","TLE_LINE2":"2 51781  53.2149 250.0996 0001628  85.4739 274.6439 15.08846906 55925","REV_AT_EPOCH":"5592","RCS_SIZE":"LARGE","INCLINATION":"53.2149","OBJECT_NAME":"STARLINK-3580","TIME_SYSTEM":"UTC","MEAN_MOTION_DDOT":"0.0000000000000","ECCENTRICITY":"0.00016280","FILE":"3849487","ELEMENT_SET_NO":"999","MEAN_ELEMENT_THEORY":"SGP4","NORAD_CAT_ID":"51781","COUNTRY_CODE":"US","SEMIMAJOR_AXIS":"6917.859","APOAPSIS":"540.851","EPOCH":"2023-03-02T19:39:50.643360","RA_OF_ASC_NODE":"250.0996","OBJECT_ID":"2022-017P","MEAN_ANOMALY":"274.6439","MEAN_MOTION":"15.08846906","GP_ID":"227362478","DECAY_DATE":null,"REF_FRAME":"TEME","MEAN_MOTION_DOT":"0.00004369","EPHEMERIS_TYPE":"0","OBJECT_TYPE":"PAYLOAD","BSTAR":"0.00029236000000","PERIOD":"95.437","TLE_LINE1":"1 51781U 22017P   23061.81933615  .00004369  00000-0  29236-3 0  9999","SITE":"AFWTR"},{"OBJECT_TYPE":"PAYLOAD","SITE":"AFWTR","TLE_LINE1":"1 51782U 22017Q   23061.83681822  .00010282  00000-0  66279-3 0  9991","PERIOD":"95.436","BSTAR":"0.00066279000000","REF_FRAME":"TEME","MEAN_MOTION_DOT":"0.00010282","EPHEMERIS_TYPE":"0","APOAPSIS":"540.635","SEMIMAJOR_AXIS":"6917.817","COUNTRY_CODE":"US","RA_OF_ASC_NODE":"260.0164","EPOCH":"2023-03-02T20:05:01.094208","MEAN_ANOMALY":"291.4135","OBJECT_ID":"2022-017Q","GP_ID":"227361720","DECAY_DATE":null,"MEAN_MOTION":"15.08860781","ELEMENT_SET_NO":"999","MEAN_ELEMENT_THEORY":"SGP4","NORAD_CAT_ID":"51782","FILE":"3849487","PERIAPSIS":"538.729","TLE_LINE2":"2 51782  53.2169 260.0164 0001378  68.7004 291.4135 15.08860781 55698","LAUNCH_DATE":"2022-02-25","OBJECT_NAME":"STARLINK-3616","RCS_SIZE":"LARGE","INCLINATION":"53.2169","TIME_SYSTEM":"UTC","REV_AT_EPOCH":"5569","ECCENTRICITY":"0.00013780","MEAN_MOTION_DDOT":"0.0000000000000","CLASSIFICATION_TYPE":"U","ARG_OF_PERICENTER":"68.7004","CENTER_NAME":"EARTH"},{"FILE":"3849487","ELEMENT_SET_NO":"999","NORAD_CAT_ID":"51783","MEAN_ELEMENT_THEORY":"SGP4","CLASSIFICATION_TYPE":"U","ARG_OF_PERICENTER":"86.4859","CENTER_NAME":"EARTH","TLE_LINE2":"2 51783  53.2136 250.0831 0000973  86.4859 344.5415 15.08860196  1308","LAUNCH_DATE":"2022-02-25","PERIAPSIS":"539.011","ECCENTRICITY":"0.00009730","MEAN_MOTION_DDOT":"0.0000000000000","RCS_SIZE":"LARGE","TIME_SYSTEM":"UTC","INCLINATION":"53.2136","OBJECT_NAME":"STARLINK-3628","REV_AT_EPOCH":"130","MEAN_MOTION_DOT":"-0.00055526","REF_FRAME":"TEME","EPHEMERIS_TYPE":"0","OBJECT_TYPE":"PAYLOAD","TLE_LINE1":"1 51783U 22017R   23061.83334491 -.00055526  00000-0 -34959-2 0  9990","SITE":"AFWTR","BSTAR":"-0.00349590000000","PERIOD":"95.436","RA_OF_ASC_NODE":"250.0831","EPOCH":"2023-03-02T20:00:01.000224","APOAPSIS":"540.357","SEMIMAJOR_AXIS":"6917.819","COUNTRY_CODE":"US","GP_ID":"227361970","DECAY_DATE":null,"MEAN_MOTION":"15.08860196","MEAN_ANOMALY":"344.5415","OBJECT_ID":"2022-017R"}];
